STARLINK-2637           
1 48356U 21038D   26068.04850982  .00008368  00000+0  30201-3 0  9991
2 48356  53.1538   1.1174 0001281  68.0058 292.1078 15.29352936266981
STARLINK-36554          
1 67502U 26012K   26067.71268370  .00032833  00000+0  11969-2 0  9992
2 67502  42.9934 319.8184 0000695 339.2059  20.8765 15.27591469  7619
